HST                     
1 20580U 90037B   23045.56195418  .00007269  00000+0  40235-3 0  9997
2 20580  28.4715   3.2127 0002572 134.4770  16.1854 15.11964367602872
POLAR                   
1 23802U 96013A   23037.91898897  .00000318  00000+0  00000+0 0  9998
2 23802  78.8398 239.3352 5765690 250.8279  40.7944  1.29847017128916
SWAS                    
1 25560U 98071A   23042.87918287  .00006180  00000+0  55944-3 0  9998
2 25560  69.8987 102.5403 0010340 306.0682  53.9516 14.95840806314074
CXO                     
1 25867U 99040B   23046.32761237  .00000866  00000+0  00000+0 0  9994
2 25867  39.2503 211.7596 9007630 250.4756   0.4578  0.37813061 12722
XMM-NEWTON              
1 25989U 99066A   23044.82188075  .00000242  00000+0  00000+0 0  9991
2 25989  69.4614 300.4933 5706981  83.9231   0.1245  0.50133331 16894
TERRA                   
1 25994U 99068A   23045.51547522  .00001312  00000+0  28881-3 0  9992
2 25994  98.1095 116.8720 0002836  94.4357 321.0425 14.59035244231773
CLUSTER II-FM7 (SAMBA)  
1 26410U 00041A   23039.06397016  .00000165  00000+0  00000+0 0  9997
2 26410 135.3757 350.3084 6201506 203.5532 359.2246  0.44175200 14851
CLUSTER II-FM6 (SALSA)  
1 26411U 00041B   23043.57208637  .00000785  00000+0  00000+0 0  9997
2 26411 139.1607 356.4327 7898413 209.9871 359.4836  0.44221420 25946
CLUSTER II-FM5 (RUMBA)  
1 26463U 00045A   23043.57816263  .00000806  00000+0  00000+0 0  9992
2 26463 142.4839 356.6134 7396101 210.8818 359.5011  0.44221228 14809
CLUSTER II-FM8 (TANGO)  
1 26464U 00045B   23039.06341738  .00000165  00000+0  00000+0 0  9990
2 26464 135.3838 350.3066 6198531 203.5905 359.2684  0.44221007 14861
ODIN                    
1 26702U 01007A   23045.32213132  .00011662  00000+0  67876-3 0  9998
2 26702  97.5128  60.8213 0010630 166.0951 194.0575 15.12147291202793
TIMED                   
1 26998U 01055B   23045.33763418  .00003559  00000+0  37976-3 0  9990
2 26998  74.0732 157.5958 0002302 303.1648  56.9312 14.89233876149002
RHESSI                  
1 27370U 02004A   23045.01905081  .00147916  00000+0  14054-2 0  9996
2 27370  38.0262 279.1161 0007093 324.7660  35.2652 15.65476665164135
INTEGRAL                
1 27540U 02048A   23044.65128542 -.00000169  00000+0  00000+0 0  9993
2 27540  81.3632  45.3856 8822150 294.3399  28.3999  0.37575101 22057
CORIOLIS                
1 27640U 03001A   23045.51314606  .00000378  00000+0  20077-3 0  9999
2 27640  98.7178  55.5849 0015117 119.3612  34.0256 14.19204139 41318
SORCE                   
1 27651U 03004A   23045.44928649  .00006382  00000+0  64632-3 0  9990
2 27651  39.9956 305.4689 0021308  11.2710 348.8553 14.90953543 89180
MOST                    
1 27843U 03031D   23045.27094311  .00000313  00000+0  16535-3 0  9991
2 27843  98.7093  54.3195 0010231 164.6444 195.5045 14.20747033 17597
SCISAT 1                
1 27858U 03036A   23045.33956358  .00001793  00000+0  25376-3 0  9993
2 27858  73.9316  66.4126 0006810  39.2579 320.9088 14.77894434 51160
SWIFT                   
1 28485U 04047A   23045.35316162  .00012558  00000+0  74869-3 0  9990
2 28485  20.5581  49.9555 0010349 130.9989 229.1342 15.08670254    26
CLOUDSAT                
1 29107U 06016A   23045.55436996  .00001234  00000+0  24741-3 0  9993
2 29107  98.3612  13.4394 0001453 270.5379  89.5656 14.63549975894430
CALIPSO                 
1 29108U 06016B   23045.55387901  .00003382  00000+0  66127-3 0  9995
2 29108  98.3596  12.9307 0001492  83.3767 276.7604 14.63544449894427
HINODE (SOLAR-B)        
1 29479U 06041A   23045.50458453  .00001661  00000+0  31721-3 0  9990
2 29479  98.1133  62.5126 0018367 179.3249 180.7982 14.65149508876199
SJ-6C                   
1 29505U 06046A   23045.51786098  .00006810  00000+0  58913-3 0  9998
2 29505  97.7614  69.9256 0005633  43.4145 316.7536 14.97480153888908
SJ-6D                   
1 29506U 06046B   23045.48753172  .00003834  00000+0  35961-3 0  9993
2 29506  97.7825  69.7603 0003604 117.5146 242.6434 14.94588132888285
AGILE                   
1 31135U 07013A   23045.46308946  .00038153  00000+0  74315-3 0  9990
2 31135   2.4666 115.8610 0008315 319.8077  40.1362 15.45096717514341
AIM                     
1 31304U 07015A   23045.53242706  .00032139  00000+0  13371-2 0  9991
2 31304  97.8632 339.6692 0001261 234.0284 126.0835 15.23703787867963
FGRST (GLAST)           
1 33053U 08029A   23045.41928055  .00005890  00000+0  30607-3 0  9991
2 33053  25.5839 316.2567 0011977 105.0075 255.1787 15.13178207810370
WISE                    
1 36119U 09071A   23045.33190421  .00019484  00000+0  52702-3 0  9998
2 36119  97.2141  80.1031 0003375 126.5397 233.6159 15.37739818732610
SDO                     
1 36395U 10005A   23045.21506536 -.00000081  00000+0  00000+0 0  9992
2 36395  32.1274 105.3258 0002479 222.7890 151.0866  1.00275873 47846
CRYOSAT 2               
1 36508U 10013A   23044.81780418  .00000653  00000+0  16137-3 0  9991
2 36508  92.0305 342.5548 0005896 126.1653 234.0101 14.51914006681159
X-SAT                   
1 37389U 11015C   23045.42446709  .00000184  00000+0  97149-4 0  9994
2 37389  98.3131  71.0990 0013527 326.7093  33.3238 14.24480789614652
GCOM-W1 (SHIZUKU)       
1 38337U 12025A   23045.58196696  .00001863  00000+0  42335-3 0  9995
2 38337  98.2287 347.7157 0001370  80.2684  92.7298 14.57117487571572
NUSTAR                  
1 38358U 12031A   23045.43906301  .00008379  00000+0  75829-3 0  9994
2 38358   6.0280  41.6342 0011955 237.6871 122.2099 14.90680737581004
NEOSSAT                 
1 39089U 13009D   23045.24956809  .00000604  00000+0  22817-3 0  9991
2 39089  98.4120 240.4039 0010157 279.3909  80.6128 14.34777754521888
BRITE-AUSTRIA           
1 39091U 13009F   23044.55424529  .00000650  00000+0  24135-3 0  9992
2 39091  98.3942 240.4799 0009357 281.4374  78.5761 14.35385572522014
IRIS                    
1 39197U 13033A   23045.37331179  .00003334  00000+0  44687-3 0  9991
2 39197  97.9685 234.1738 0026623 328.4575  31.5039 14.79834055519749
HISAKI (SPRINT-A)       
1 39253U 13049A   23045.36071942  .00000244  00000+0  23916-3 0  9998
2 39253  29.7206 295.4127 0137435 217.4564 141.6362 13.55311818465949
CASSIOPE                
1 39265U 13055A   23045.59024890  .00037195  00000+0  94793-3 0  9999
2 39265  80.9639   9.3642 0590825 317.3298  38.3392 14.46389879487228
STSAT-3                 
1 39422U 13066G   23045.44817146  .00004799  00000+0  48373-3 0  9991
2 39422  97.4796  42.7766 0021646 190.1350 169.9432 14.91396247501897
SWARM B                 
1 39451U 13067A   23045.52113854  .00007513  00000+0  32951-3 0  9990
2 39451  87.7548 348.8813 0003486  92.6285 267.5359 15.21821064497727
SWARM A                 
1 39452U 13067B   23045.24555238  .00012294  00000+0  36112-3 0  9991
2 39452  87.3610 138.1015 0002474 107.7145 252.4378 15.35005085518985
SWARM C                 
1 39453U 13067C   23045.37586293  .00012303  00000+0  36146-3 0  9999
2 39453  87.3458 137.0338 0002466 107.8413 252.3108 15.34997424518966
BRITE-CA1 (TORONTO)     
1 40020U 14033L   23045.38176756  .00003543  00000+0  59977-3 0  9998
2 40020  97.8042 197.5355 0085511 211.3598 148.2492 14.67512347463139
OCO 2                   
1 40059U 14035A   23045.54586988  .00001587  00000+0  36252-3 0  9999
2 40059  98.2291 348.4010 0001557  88.4237 271.7140 14.57089385458583
BRITE-PL2 (HEWELIUSZ)   
1 40119U 14049B   23045.51275790  .00004044  00000+0  46913-3 0  9990
2 40119  97.8792 143.7448 0017186 166.1712 193.9978 14.85872912459941
RESURS P2               
1 40360U 14087A   23045.57583993  .00018425  00000+0  45932-3 0  9991
2 40360  97.1890 130.9234 0007332 299.3527 167.3645 15.40237872455479
MMS 1                   
1 40482U 15011A   23044.82908902 -.00002121  00000+0  00000+0 0  9992
2 40482  29.1997  82.9365 8979222  77.0543 355.9712  0.28542552 13981
MMS 2                   
1 40483U 15011B   23044.84853346 -.00002123  00000+0  00000+0 0  9998
2 40483  29.1970  82.9410 8977989  77.0571 357.9712  0.28544342 14053
MMS 3                   
1 40484U 15011C   23044.85686679 -.00002125  00000+0  00000+0 0  9995
2 40484  29.1947  82.9415 8978565  77.0473 358.8435  0.28538695 13735
MMS 4                   
1 40485U 15011D   23044.89575568 -.00002131  00000+0  00000+0 0  9991
2 40485  29.2003  82.9468 8978719  77.0434   2.8399  0.28533174 13941
ASTROSAT                
1 40930U 15052A   23044.97040653  .00003516  00000+0  39697-3 0  9997
2 40930   5.9963 255.4171 0009025 330.0695  29.8916 14.77119943398918
DAMPE                   
1 41173U 15078A   23045.46139728  .00002937  00000+0  12017-3 0  9995
2 41173  97.3973  37.8902 0015196  70.1846  80.6389 15.25025967398458
PISAT                   
1 41784U 16059B   23045.55649321  .00002159  00000+0  41459-3 0  9996
2 41784  97.8871  84.1191 0032738 122.4784 237.9591 14.64312261341117
HXMT (HUIYAN)           
1 42758U 17034A   23045.53319972  .00010592  00000+0  61022-3 0  9994
2 42758  43.0164  95.4168 0010496   0.2474 143.1739 15.12424024312803
FLYING LAPTOP           
1 42831U 17042G   23045.36067960  .00003471  00000+0  34279-3 0  9995
2 42831  97.3986 250.4782 0012343 280.2518  79.7297 14.92501142304163
PICSAT                  
1 43132U 18004X   23045.49588020  .00062791  00000+0  14739-2 0  9996
2 43132  97.3464 126.5929 0006366 207.5916 152.4994 15.41802063283549
ZHANGZHENG-1 (CSES)     
1 43194U 18015C   23045.38198372 -.00010287  00000+0 -46325-3 0  9993
2 43194  97.5415 181.2301 0008268 332.2584 119.4026 15.20858258279398
ICON                    
1 44628U 19068A   23045.61242748  .00007595  00000+0  67099-3 0  9995
2 44628  26.9878 164.6570 0018761 103.5482 256.7168 14.94213401182804
SALSAT                  
1 46495U 20068K   23045.28670948  .00007677  00000+0  52742-3 0  9991
2 46495  97.7560 352.2307 0016243 170.6365 189.5168 15.06136395130562
IXPE                    
1 49954U 21121A   23045.43184063  .00008447  00000+0  72245-3 0  9996
2 49954   0.2313  44.1085 0010910 253.4127  62.3683 14.92702382 64634
